facilityId,facilityname,ownership,facilityTypeId,scheme,areaAcres,latitude,longitude,address,statusId,remarks,operatingHoursFrom,operatingHoursTo,sun,mon,tue,wed,thu,fri,sat,additionalDetails,createdBy,createdOn,updatedBy,updatedOn,deletedBy,deletedOn,createdAt,updatedAt,helpNumber,about,facility_type
1,"Prachi Park",BDA,1,BDA,0.439,20.3227,85.8145,,1,NA,06:30AM,06:30PM,1,1,1,1,1,1,1,NA,0,"2024-05-07 12:00:23",0,"2024-05-07 12:00:23",NULL,NULL,"2024-05-07 11:47:53","2024-05-07 11:47:53",8098098090,"This is the best place to hang out",Parks
2,"Acharya Vihar Colony Park",BMC,1,BMC,2.46,20.2891,85.8278,,1,NA,06:30AM,06:30PM,1,1,1,1,1,1,1,NA,0,"2024-05-07 12:00:23",0,"2024-05-07 12:00:23",NULL,NULL,"2024-05-07 11:47:53","2024-05-07 11:47:53",8098098090,"This is the best place to hang out",Parks
3,"VIP Colony Park, Near Plot - 58",BDA,1,BDA,1.321,20.2954,85.8016,,1,NA,06:30AM,06:30PM,1,1,1,1,1,1,1,NA,0,"2024-05-07 12:00:23",0,"2024-05-07 12:00:23",NULL,NULL,"2024-05-07 11:47:53","2024-05-07 11:47:53",8098098090,"This is the best place to hang out",Parks
4,"Ruchika High School, Unit - 6",,2,,0.56,20.2634,85.8199,"Surya Nagar",1,NA,06:30AM,06:30PM,1,1,1,1,1,1,1,NA,0,"2024-05-07 12:00:23",0,"2024-05-07 12:00:23",NULL,NULL,"2024-05-07 11:47:53","2024-05-07 11:47:53",8098098090,"This is the best place to hang out",Playgrounds
5,"Akshaya Mohanty Park (RPRC Boundary)",BDA,1,BDA,2.15,20.2968,85.8027,,1,NA,06:30AM,06:30PM,1,1,1,1,1,1,1,NA,0,"2024-05-07 12:00:23",0,"2024-05-07 12:00:23",NULL,NULL,"2024-05-07 11:47:53","2024-05-07 11:47:53",8098098090,"This is the best place to hang out",Parks
6,"Nicco Park",BDA,1,"BDA City Center",23.513,20.2854,85.8308,,1,NA,06:30AM,06:30PM,1,1,1,1,1,1,1,NA,0,"2024-05-07 12:00:23",0,"2024-05-07 12:00:23",NULL,NULL,"2024-05-07 11:47:53","2024-05-07 11:47:53",8098098090,"This is the best place to hang out",Parks
7,"Lalbahadaur High School, Phulnakhara",,2,,1.326,20.3507,85.9019,Johal,1,NA,06:30AM,06:30PM,1,1,1,1,1,1,1,NA,0,"2024-05-07 12:00:23",0,"2024-05-07 12:00:23",NULL,NULL,"2024-05-07 11:47:53","2024-05-07 11:47:53",8098098090,"This is the best place to hang out",Playgrounds
8,"Vivekananda Siksha Kendra",,2,,0.058,20.3393,85.8184,Patia,1,NA,06:30AM,06:30PM,1,1,1,1,1,1,1,NA,0,"2024-05-07 12:00:23",0,"2024-05-07 12:00:23",NULL,NULL,"2024-05-07 11:47:53","2024-05-07 11:47:53",8098098090,"This is the best place to hang out",Playgrounds
9,"Satya Sai Enclave Park",BMC,1,BMC,0.836,20.2586,85.7772,,1,NA,06:30AM,06:30PM,1,1,1,1,1,1,1,NA,0,"2024-05-07 12:00:23",0,"2024-05-07 12:00:23",NULL,NULL,"2024-05-07 11:47:53","2024-05-07 11:47:53",8098098090,"This is the best place to hang out",Parks
10,"Parade Ground",,2,,9.927,20.2772,85.8235,Nayapalli,1,NA,06:30AM,06:30PM,1,1,1,1,1,1,1,NA,0,"2024-05-07 12:00:23",0,"2024-05-07 12:00:23",NULL,NULL,"2024-05-07 11:47:53","2024-05-07 11:47:53",8098098090,"This is the best place to hang out",Playgrounds
11,"Sibananda Public School, Unit - 2",,2,,0.226,20.2651,85.8378,"Kharavela Nagar",1,NA,06:30AM,06:30PM,1,1,1,1,1,1,1,NA,0,"2024-05-07 12:00:23",0,"2024-05-07 12:00:23",NULL,NULL,"2024-05-07 11:47:53","2024-05-07 11:47:53",8098098090,"This is the best place to hang out",Playgrounds
12,"IMFA Park",IMFA,1,IMFA,6.302,20.2919,85.8512,,1,NA,06:30AM,06:30PM,1,1,1,1,1,1,1,NA,0,"2024-05-07 12:00:23",0,"2024-05-07 12:00:23",NULL,NULL,"2024-05-07 11:47:53","2024-05-07 11:47:53",8098098090,"This is the best place to hang out",Parks
13,"BMC Children Park",BMC,1,BMC,0.101,20.2796,85.7661,,1,NA,06:30AM,06:30PM,1,1,1,1,1,1,1,NA,0,"2024-05-07 12:00:23",0,"2024-05-07 12:00:23",NULL,NULL,"2024-05-07 11:47:53","2024-05-07 11:47:53",8098098090,"This is the best place to hang out",Parks
14,"Rental Park",BMC,1,BMC,1.327,20.2893,85.7988,,1,NA,06:30AM,06:30PM,1,1,1,1,1,1,1,NA,0,"2024-05-07 12:00:23",0,"2024-05-07 12:00:23",NULL,NULL,"2024-05-07 11:47:53","2024-05-07 11:47:53",8098098090,"This is the best place to hang out",Parks
15,"BDA Colony Park - Chandrasekharpur",BMC,1,AMRUT,0.548,20.3207,85.8183,,1,NA,06:30AM,06:30PM,1,1,1,1,1,1,1,NA,0,"2024-05-07 12:00:23",0,"2024-05-07 12:00:23",NULL,NULL,"2024-05-07 11:47:53","2024-05-07 11:47:53",8098098090,"This is the best place to hang out",Parks
16,"LLC Ground IRC",,2,,0.475,20.2951,85.8054,"Jayadev Vihar",1,NA,06:30AM,06:30PM,1,1,1,1,1,1,1,NA,0,"2024-05-07 12:00:23",0,"2024-05-07 12:00:23",NULL,NULL,"2024-05-07 11:47:53","2024-05-07 11:47:53",8098098090,"This is the best place to hang out",Playgrounds
17,"Pokhariput Playground (Biharilal Stadium)",,2,,3.262,20.2358,85.8101,Pokhariput,1,NA,06:30AM,06:30PM,1,1,1,1,1,1,1,NA,0,"2024-05-07 12:00:23",0,"2024-05-07 12:00:23",NULL,NULL,"2024-05-07 11:47:53","2024-05-07 11:47:53",8098098090,"This is the best place to hang out",Playgrounds
18,"Bhoisahi Playground",,2,,0.404,20.2894,85.8166,Nayapalli,1,NA,06:30AM,06:30PM,1,1,1,1,1,1,1,NA,0,"2024-05-07 12:00:23",0,"2024-05-07 12:00:23",NULL,NULL,"2024-05-07 11:47:53","2024-05-07 11:47:53",8098098090,"This is the best place to hang out",Playgrounds
19,"BMC Children Park",BMC,1,BMC,0.255,20.361,85.8225,,1,NA,06:30AM,06:30PM,1,1,1,1,1,1,1,NA,0,"2024-05-07 12:00:23",0,"2024-05-07 12:00:23",NULL,NULL,"2024-05-07 11:47:53","2024-05-07 11:47:53",8098098090,"This is the best place to hang out",Parks
20,"Bhubaneswar Football Academy",,2,,11.173,20.2609,85.8307,"Kharavela Nagar",1,NA,06:30AM,06:30PM,1,1,1,1,1,1,1,NA,0,"2024-05-07 12:00:23",0,"2024-05-07 12:00:23",NULL,NULL,"2024-05-07 11:47:53","2024-05-07 11:47:53",8098098090,"This is the best place to hang out",Playgrounds
21,"Bhubaneswar Railway Parking",,2,,1.432,20.2689,85.8446,"Kharavela Nagar",1,NA,06:30AM,06:30PM,1,1,1,1,1,1,1,NA,0,"2024-05-07 12:00:23",0,"2024-05-07 12:00:23",NULL,NULL,"2024-05-07 11:47:53","2024-05-07 11:47:53",8098098090,"This is the best place to hang out",Playgrounds
22,"Children's And Jogger's Park",BMC,1,BMC,0.377,20.2812,85.8592,,1,NA,06:30AM,06:30PM,1,1,1,1,1,1,1,NA,0,"2024-05-07 12:00:23",0,"2024-05-07 12:00:23",NULL,NULL,"2024-05-07 11:47:53","2024-05-07 11:47:53",8098098090,"This is the best place to hang out",Parks
23,"BJB Nagar Field",,2,,0.677,20.2503,85.8433,"BJB Nagar",1,NA,06:30AM,06:30PM,1,1,1,1,1,1,1,NA,0,"2024-05-07 12:00:23",0,"2024-05-07 12:00:23",NULL,NULL,"2024-05-07 11:47:53","2024-05-07 11:47:53",8098098090,"This is the best place to hang out",Playgrounds
24,"Baramunda Cenus Colony Park - North",BMC,1,BMC,0.181,20.2786,85.7945,,1,NA,06:30AM,06:30PM,1,1,1,1,1,1,1,NA,0,"2024-05-07 12:00:23",0,"2024-05-07 12:00:23",NULL,NULL,"2024-05-07 11:47:53","2024-05-07 11:47:53",8098098090,"This is the best place to hang out",Parks
25,"Maitri Vihar Park",BMC,1,BMC,0.168,20.3114,85.8153,,1,NA,06:30AM,06:30PM,1,1,1,1,1,1,1,NA,0,"2024-05-07 12:00:23",0,"2024-05-07 12:00:23",NULL,NULL,"2024-05-07 11:47:53","2024-05-07 11:47:53",8098098090,"This is the best place to hang out",Parks
26,"Shailashree Vihar Phase VI, VIM 683",BMC,1,BMC,0.511,20.3364,85.8076,,1,NA,06:30AM,06:30PM,1,1,1,1,1,1,1,NA,0,"2024-05-07 12:00:23",0,"2024-05-07 12:00:23",NULL,NULL,"2024-05-07 11:47:53","2024-05-07 11:47:53",8098098090,"This is the best place to hang out",Parks
27,"Kharvela Park",BDA,1,BDA,15.987,20.256,85.7849,,1,NA,06:30AM,06:30PM,1,1,1,1,1,1,1,NA,0,"2024-05-07 12:00:23",0,"2024-05-07 12:00:23",NULL,NULL,"2024-05-07 11:47:53","2024-05-07 11:47:53",8098098090,"This is the best place to hang out",Parks
28,"Shailashree Vihar Phase VI, VIM 764",BMC,1,BMC,0.553,20.3363,85.8089,,1,NA,06:30AM,06:30PM,1,1,1,1,1,1,1,NA,0,"2024-05-07 12:00:23",0,"2024-05-07 12:00:23",NULL,NULL,"2024-05-07 11:47:53","2024-05-07 11:47:53",8098098090,"This is the best place to hang out",Parks
29,"K - 5, Kalinga Vihar Ground",,2,,0.471,20.2483,85.7562,Baramunda,1,NA,06:30AM,06:30PM,1,1,1,1,1,1,1,NA,0,"2024-05-07 12:00:23",0,"2024-05-07 12:00:23",NULL,NULL,"2024-05-07 11:47:53","2024-05-07 11:47:53",8098098090,"This is the best place to hang out",Playgrounds
30,"Rajiv Nagar Park, Aiginia",BMC,1,AMRUT,0.423,20.2482,85.7817,,1,NA,06:30AM,06:30PM,1,1,1,1,1,1,1,NA,0,"2024-05-07 12:00:23",0,"2024-05-07 12:00:23",NULL,NULL,"2024-05-07 11:47:53","2024-05-07 11:47:53",8098098090,"This is the best place to hang out",Parks
31,"G.L. Colony Park - VSS Nagar","BMC - List provided by GA",1,"BMC - List provided by GA",0.041,20.3045,85.8469,,1,NA,06:30AM,06:30PM,1,1,1,1,1,1,1,NA,0,"2024-05-07 12:00:23",0,"2024-05-07 12:00:23",NULL,NULL,"2024-05-07 11:47:53","2024-05-07 11:47:53",8098098090,"This is the best place to hang out",Parks
32,"Biju Patnaik (Forest) Park",BDA,1,"10 Park Improvement",26.885,20.2581,85.8254,,1,NA,06:30AM,06:30PM,1,1,1,1,1,1,1,NA,0,"2024-05-07 12:00:23",0,"2024-05-07 12:00:23",NULL,NULL,"2024-05-07 11:47:53","2024-05-07 11:47:53",8098098090,"This is the best place to hang out",Parks
33,"K2 Field",,2,,0.623,20.2703,85.7561,Baramunda,1,NA,06:30AM,06:30PM,1,1,1,1,1,1,1,NA,0,"2024-05-07 12:00:23",0,"2024-05-07 12:00:23",NULL,NULL,"2024-05-07 11:47:53","2024-05-07 11:47:53",8098098090,"This is the best place to hang out",Playgrounds
34,"Kelucharan Mahapatra Park",BDA,1,BDA,24.866,20.329,85.8287,,1,NA,06:30AM,06:30PM,1,1,1,1,1,1,1,NA,0,"2024-05-07 12:00:23",0,"2024-05-07 12:00:23",NULL,NULL,"2024-05-07 11:47:53","2024-05-07 11:47:53",8098098090,"This is the best place to hang out",Parks
35,"Kalinga Bidyamandir",,2,,0.24,20.2973,85.8067,"Jayadev Vihar",1,NA,06:30AM,06:30PM,1,1,1,1,1,1,1,NA,0,"2024-05-07 12:00:23",0,"2024-05-07 12:00:23",NULL,NULL,"2024-05-07 11:47:53","2024-05-07 11:47:53",8098098090,"This is the best place to hang out",Playgrounds
36,"Saheed Nagar Sports Complex",,2,,0.805,20.2868,85.8447,"Saheed Nagar",1,NA,06:30AM,06:30PM,1,1,1,1,1,1,1,NA,0,"2024-05-07 12:00:23",0,"2024-05-07 12:00:23",NULL,NULL,"2024-05-07 11:47:53","2024-05-07 11:47:53",8098098090,"This is the best place to hang out",Playgrounds
37,"Kalinga Cricket Club Ground",,2,,3.416,20.2549,85.7559,Baramunda,1,NA,06:30AM,06:30PM,1,1,1,1,1,1,1,NA,0,"2024-05-07 12:00:23",0,"2024-05-07 12:00:23",NULL,NULL,"2024-05-07 11:47:53","2024-05-07 11:47:53",8098098090,"This is the best place to hang out",Playgrounds
38,"Kalinga Sports Club Field",,2,,1.671,20.2908,85.8186,Nayapalli,1,NA,06:30AM,06:30PM,1,1,1,1,1,1,1,NA,0,"2024-05-07 12:00:23",0,"2024-05-07 12:00:23",NULL,NULL,"2024-05-07 11:47:53","2024-05-07 11:47:53",8098098090,"This is the best place to hang out",Playgrounds
39,"Loyala School Ground",,2,,6.296,20.3059,85.8123,"Jayadev Vihar",1,NA,06:30AM,06:30PM,1,1,1,1,1,1,1,NA,0,"2024-05-07 12:00:23",0,"2024-05-07 12:00:23",NULL,NULL,"2024-05-07 11:47:53","2024-05-07 11:47:53",8098098090,"This is the best place to hang out",Playgrounds
40,"Kalinga Stadium, Bhubaneswar",,2,,106.171,20.2902,85.8234,Nayapalli,1,NA,06:30AM,06:30PM,1,1,1,1,1,1,1,NA,0,"2024-05-07 12:00:23",0,"2024-05-07 12:00:23",NULL,NULL,"2024-05-07 11:47:53","2024-05-07 11:47:53",8098098090,"This is the best place to hang out",Playgrounds
41,"Buxi Jagabandhu Vidya Mandir, Pahala",,2,,0.068,20.3439,85.8871,Johal,1,NA,06:30AM,06:30PM,1,1,1,1,1,1,1,NA,0,"2024-05-07 12:00:23",0,"2024-05-07 12:00:23",NULL,NULL,"2024-05-07 11:47:53","2024-05-07 11:47:53",8098098090,"This is the best place to hang out",Playgrounds
42,"BDA Jogging Park - Niladri Vihar",BMC,1,AMRUT,1.064,20.328,85.8025,,1,NA,06:30AM,06:30PM,1,1,1,1,1,1,1,NA,0,"2024-05-07 12:00:23",0,"2024-05-07 12:00:23",NULL,NULL,"2024-05-07 11:47:53","2024-05-07 11:47:53",8098098090,"This is the best place to hang out",Parks
43,"M.B.S Public School, Unit - 3",,2,,0.169,20.2794,85.8364,"Bhoi Nagar",1,NA,06:30AM,06:30PM,1,1,1,1,1,1,1,NA,0,"2024-05-07 12:00:23",0,"2024-05-07 12:00:23",NULL,NULL,"2024-05-07 11:47:53","2024-05-07 11:47:53",8098098090,"This is the best place to hang out",Playgrounds
44,"Pragyan Vihar BDA Park",BDA,1,BDA,1.531,20.2762,85.7935,,1,NA,06:30AM,06:30PM,1,1,1,1,1,1,1,NA,0,"2024-05-07 12:00:23",0,"2024-05-07 12:00:23",NULL,NULL,"2024-05-07 11:47:53","2024-05-07 11:47:53",8098098090,"This is the best place to hang out",Parks
45,"Carrom Field",,2,,0.553,20.275,85.8134,"Gopabandhu Nagar",1,NA,06:30AM,06:30PM,1,1,1,1,1,1,1,NA,0,"2024-05-07 12:00:23",0,"2024-05-07 12:00:23",NULL,NULL,"2024-05-07 11:47:53","2024-05-07 11:47:53",8098098090,"This is the best place to hang out",Playgrounds
46,"KCC playground",,2,,1.21,20.2918,85.81,"Jayadev Vihar",1,NA,06:30AM,06:30PM,1,1,1,1,1,1,1,NA,0,"2024-05-07 12:00:23",0,"2024-05-07 12:00:23",NULL,NULL,"2024-05-07 11:47:53","2024-05-07 11:47:53",8098098090,"This is the best place to hang out",Playgrounds
47,"St. Joseph High School, Unit - 3",,2,,2.035,20.2799,85.843,"Bhoi Nagar",1,NA,06:30AM,06:30PM,1,1,1,1,1,1,1,NA,0,"2024-05-07 12:00:23",0,"2024-05-07 12:00:23",NULL,NULL,"2024-05-07 11:47:53","2024-05-07 11:47:53",8098098090,"This is the best place to hang out",Playgrounds
48,"City Womens College",,2,,0.441,20.2641,85.8306,"Kharavela Nagar",1,NA,06:30AM,06:30PM,1,1,1,1,1,1,1,NA,0,"2024-05-07 12:00:23",0,"2024-05-07 12:00:23",NULL,NULL,"2024-05-07 11:47:53","2024-05-07 11:47:53",8098098090,"This is the best place to hang out",Playgrounds
49,"CSIR - IMMT Ground",,2,,4.698,20.2992,85.8281,Samantapuri,1,NA,06:30AM,06:30PM,1,1,1,1,1,1,1,NA,0,"2024-05-07 12:00:23",0,"2024-05-07 12:00:23",NULL,NULL,"2024-05-07 11:47:53","2024-05-07 11:47:53",8098098090,"This is the best place to hang out",Playgrounds
50,"Kendriya Vidyalaya - 1 (A)",,2,,2.006,20.2821,85.843,"Bhoi Nagar",1,NA,06:30AM,06:30PM,1,1,1,1,1,1,1,NA,0,"2024-05-07 12:00:23",0,"2024-05-07 12:00:23",NULL,NULL,"2024-05-07 11:47:53","2024-05-07 11:47:53",8098098090,"This is the best place to hang out",Playgrounds
51,"Maharishi Public School Playground",,2,,0.251,20.2952,85.805,"Jayadev Vihar",1,NA,06:30AM,06:30PM,1,1,1,1,1,1,1,NA,0,"2024-05-07 12:00:23",0,"2024-05-07 12:00:23",NULL,NULL,"2024-05-07 11:47:53","2024-05-07 11:47:53",8098098090,"This is the best place to hang out",Playgrounds
52,"BDA OMC Park",BDA,1,"Smart City",0.58,20.2896,85.8502,,1,NA,06:30AM,06:30PM,1,1,1,1,1,1,1,NA,0,"2024-05-07 12:00:23",0,"2024-05-07 12:00:23",NULL,NULL,"2024-05-07 11:47:53","2024-05-07 11:47:53",8098098090,"This is the best place to hang out",Parks
53,"Debray College Field and Mini Stadium",,2,,2.198,20.283,85.8158,Nayapalli,1,NA,06:30AM,06:30PM,1,1,1,1,1,1,1,NA,0,"2024-05-07 12:00:23",0,"2024-05-07 12:00:23",NULL,NULL,"2024-05-07 11:47:53","2024-05-07 11:47:53",8098098090,"This is the best place to hang out",Playgrounds
54,"SAI International School",,2,,3.693,20.3452,85.8155,Patia,1,NA,06:30AM,06:30PM,1,1,1,1,1,1,1,NA,0,"2024-05-07 12:00:23",0,"2024-05-07 12:00:23",NULL,NULL,"2024-05-07 11:47:53","2024-05-07 11:47:53",8098098090,"This is the best place to hang out",Playgrounds
55,"Veer Srendra Sai Statue Park",BMC,1,BMC,0.229,20.3037,85.8486,,1,NA,06:30AM,06:30PM,1,1,1,1,1,1,1,NA,0,"2024-05-07 12:00:23",0,"2024-05-07 12:00:23",NULL,NULL,"2024-05-07 11:47:53","2024-05-07 11:47:53",8098098090,"This is the best place to hang out",Parks
56,"Maharishi Vidya Mandir, Delta Area",,2,,0.142,20.2746,85.8041,"Paika Nagar",1,NA,06:30AM,06:30PM,1,1,1,1,1,1,1,NA,0,"2024-05-07 12:00:23",0,"2024-05-07 12:00:23",NULL,NULL,"2024-05-07 11:47:53","2024-05-07 11:47:53",8098098090,"This is the best place to hang out",Playgrounds
57,"DM School Playground",,2,,1.918,20.2893,85.8338,"Madhusudan Nagar",1,NA,06:30AM,06:30PM,1,1,1,1,1,1,1,NA,0,"2024-05-07 12:00:23",0,"2024-05-07 12:00:23",NULL,NULL,"2024-05-07 11:47:53","2024-05-07 11:47:53",8098098090,"This is the best place to hang out",Playgrounds
58,"Dumduma Youth Club Ground",,2,,2.176,20.2468,85.7938,Dumduma,1,NA,06:30AM,06:30PM,1,1,1,1,1,1,1,NA,0,"2024-05-07 12:00:23",0,"2024-05-07 12:00:23",NULL,NULL,"2024-05-07 11:47:53","2024-05-07 11:47:53",8098098090,"This is the best place to hang out",Playgrounds
59,"Durga Mata Mandap Ground",,2,,1.24,20.3186,85.813,Damana,1,NA,06:30AM,06:30PM,1,1,1,1,1,1,1,NA,0,"2024-05-07 12:00:23",0,"2024-05-07 12:00:23",NULL,NULL,"2024-05-07 11:47:53","2024-05-07 11:47:53",8098098090,"This is the best place to hang out",Playgrounds
60,"Buddha Jayanti Park",BDA,1,BDA,33.489,20.3242,85.8072,,1,NA,06:30AM,06:30PM,1,1,1,1,1,1,1,NA,0,"2024-05-07 12:00:23",0,"2024-05-07 12:00:23",NULL,NULL,"2024-05-07 11:47:53","2024-05-07 11:47:53",8098098090,"This is the best place to hang out",Parks
61,"Mahaveer Sports Ground",,2,,7.558,20.2375,85.7643,Aiginia,1,NA,06:30AM,06:30PM,1,1,1,1,1,1,1,NA,0,"2024-05-07 12:00:23",0,"2024-05-07 12:00:23",NULL,NULL,"2024-05-07 11:47:53","2024-05-07 11:47:53",8098098090,"This is the best place to hang out",Playgrounds
62,"Ekalabya Sishu Vidyamandir",,2,,0.057,20.2912,85.777,Baramunda,1,NA,06:30AM,06:30PM,1,1,1,1,1,1,1,NA,0,"2024-05-07 12:00:23",0,"2024-05-07 12:00:23",NULL,NULL,"2024-05-07 11:47:53","2024-05-07 11:47:53",8098098090,"This is the best place to hang out",Playgrounds
63,"BRIT Colony Park - 5, Nayapalli",BDA,1,AMRUT,0.153,20.2833,85.8119,,1,NA,06:30AM,06:30PM,1,1,1,1,1,1,1,NA,0,"2024-05-07 12:00:23",0,"2024-05-07 12:00:23",NULL,NULL,"2024-05-07 11:47:53","2024-05-07 11:47:53",8098098090,"This is the best place to hang out",Parks
64,"GA Colony Club",,2,,0.45,20.3061,85.7751,Baramunda,1,NA,06:30AM,06:30PM,1,1,1,1,1,1,1,NA,0,"2024-05-07 12:00:23",0,"2024-05-07 12:00:23",NULL,NULL,"2024-05-07 11:47:53","2024-05-07 11:47:53",8098098090,"This is the best place to hang out",Playgrounds
65,"Sivananda Centenary Boys High School",,2,,4.412,20.2553,85.7821,Aiginia,1,NA,06:30AM,06:30PM,1,1,1,1,1,1,1,NA,0,"2024-05-07 12:00:23",0,"2024-05-07 12:00:23",NULL,NULL,"2024-05-07 11:47:53","2024-05-07 11:47:53",8098098090,"This is the best place to hang out",Playgrounds
66,"Gas Field",,2,,2.206,20.2382,85.8501,Nuagaon,1,NA,06:30AM,06:30PM,1,1,1,1,1,1,1,NA,0,"2024-05-07 12:00:23",0,"2024-05-07 12:00:23",NULL,NULL,"2024-05-07 11:47:53","2024-05-07 11:47:53",8098098090,"This is the best place to hang out",Playgrounds
67,"Power House Colony Upper Primary School",,2,,0.031,20.2738,85.8231,"Gopabandhu Nagar",1,NA,06:30AM,06:30PM,1,1,1,1,1,1,1,NA,0,"2024-05-07 12:00:23",0,"2024-05-07 12:00:23",NULL,NULL,"2024-05-07 11:47:53","2024-05-07 11:47:53",8098098090,"This is the best place to hang out",Playgrounds
68,"Gopabandhu Ground",,2,,2.304,20.2732,85.8148,"Gopabandhu Nagar",1,NA,06:30AM,06:30PM,1,1,1,1,1,1,1,NA,0,"2024-05-07 12:00:23",0,"2024-05-07 12:00:23",NULL,NULL,"2024-05-07 11:47:53","2024-05-07 11:47:53",8098098090,"This is the best place to hang out",Playgrounds
69,"Maruti Play Ground",,2,,2.392,20.2581,85.7907,Jagamara,1,NA,06:30AM,06:30PM,1,1,1,1,1,1,1,NA,0,"2024-05-07 12:00:23",0,"2024-05-07 12:00:23",NULL,NULL,"2024-05-07 11:47:53","2024-05-07 11:47:53",8098098090,"This is the best place to hang out",Playgrounds
70,"Governement Ashram School, Nayapalli",,2,,0.587,20.2868,85.8292,"Madhusudan Nagar",1,NA,06:30AM,06:30PM,1,1,1,1,1,1,1,NA,0,"2024-05-07 12:00:23",0,"2024-05-07 12:00:23",NULL,NULL,"2024-05-07 11:47:53","2024-05-07 11:47:53",8098098090,"This is the best place to hang out",Playgrounds
71,"BMC Park Phase 2","BMC - List provided by GA",1,"BMC - List provided by GA",1.111,20.2417,85.7908,,1,NA,06:30AM,06:30PM,1,1,1,1,1,1,1,NA,0,"2024-05-07 12:00:23",0,"2024-05-07 12:00:23",NULL,NULL,"2024-05-07 11:47:53","2024-05-07 11:47:53",8098098090,"This is the best place to hang out",Parks
72,"Vivekananda Siksha Kendra, Laxmisagar",,2,,0.103,20.27,85.8562,Jharpada,1,NA,06:30AM,06:30PM,1,1,1,1,1,1,1,NA,0,"2024-05-07 12:00:23",0,"2024-05-07 12:00:23",NULL,NULL,"2024-05-07 11:47:53","2024-05-07 11:47:53",8098098090,"This is the best place to hang out",Playgrounds
73,"Government Polytechnic Playground",,2,,1.646,20.3102,85.8112,"Jayadev Vihar",1,NA,06:30AM,06:30PM,1,1,1,1,1,1,1,NA,0,"2024-05-07 12:00:23",0,"2024-05-07 12:00:23",NULL,NULL,"2024-05-07 11:47:53","2024-05-07 11:47:53",8098098090,"This is the best place to hang out",Playgrounds
74,"Ranganath Park",BMC,1,BMC,0.196,20.323,85.8438,,1,NA,06:30AM,06:30PM,1,1,1,1,1,1,1,NA,0,"2024-05-07 12:00:23",0,"2024-05-07 12:00:23",NULL,NULL,"2024-05-07 11:47:53","2024-05-07 11:47:53",8098098090,"This is the best place to hang out",Parks
75,"Gurunanak Public School",,2,,0.115,20.2742,85.8425,"Bhoi Nagar",1,NA,06:30AM,06:30PM,1,1,1,1,1,1,1,NA,0,"2024-05-07 12:00:23",0,"2024-05-07 12:00:23",NULL,NULL,"2024-05-07 11:47:53","2024-05-07 11:47:53",8098098090,"This is the best place to hang out",Playgrounds
76,"Nehru Park","CDP- Landuse",1,"CDP- Landuse",1.117,20.2679,85.8415,,1,NA,06:30AM,06:30PM,1,1,1,1,1,1,1,NA,0,"2024-05-07 12:00:23",0,"2024-05-07 12:00:23",NULL,NULL,"2024-05-07 11:47:53","2024-05-07 11:47:53",8098098090,"This is the best place to hang out",Parks
77,"MIG Park, Arya Vihar",,2,,0.24,20.3318,85.8108,Damana,1,NA,06:30AM,06:30PM,1,1,1,1,1,1,1,NA,0,"2024-05-07 12:00:23",0,"2024-05-07 12:00:23",NULL,NULL,"2024-05-07 11:47:53","2024-05-07 11:47:53",8098098090,"This is the best place to hang out",Playgrounds
78,"Hockey Statdium, Pokhariput",,2,,3.383,20.2392,85.8096,Pokhariput,1,NA,06:30AM,06:30PM,1,1,1,1,1,1,1,NA,0,"2024-05-07 12:00:23",0,"2024-05-07 12:00:23",NULL,NULL,"2024-05-07 11:47:53","2024-05-07 11:47:53",8098098090,"This is the best place to hang out",Playgrounds
79,"Ashok Nagar - Shishu Vihar Park (Unit II)",BDA,1,BDA,0.78,20.2665,85.8366,,1,NA,06:30AM,06:30PM,1,1,1,1,1,1,1,NA,0,"2024-05-07 12:00:23",0,"2024-05-07 12:00:23",NULL,NULL,"2024-05-07 11:47:53","2024-05-07 11:47:53",8098098090,"This is the best place to hang out",Parks
80,"Santanu English Medium School, Chintamaniswar",,2,,0.428,20.2625,85.8463,Laxmisagar,1,NA,06:30AM,06:30PM,1,1,1,1,1,1,1,NA,0,"2024-05-07 12:00:23",0,"2024-05-07 12:00:23",NULL,NULL,"2024-05-07 11:47:53","2024-05-07 11:47:53",8098098090,"This is the best place to hang out",Playgrounds
81,"Triangular Park",BDA,1,"Smart City",0.161,20.2945,85.8435,,1,NA,06:30AM,06:30PM,1,1,1,1,1,1,1,NA,0,"2024-05-07 12:00:23",0,"2024-05-07 12:00:23",NULL,NULL,"2024-05-07 11:47:53","2024-05-07 11:47:53",8098098090,"This is the best place to hang out",Parks
82,"St. Joseph School, Bharatpur",,2,,0.527,20.2913,85.7785,Baramunda,1,NA,06:30AM,06:30PM,1,1,1,1,1,1,1,NA,0,"2024-05-07 12:00:23",0,"2024-05-07 12:00:23",NULL,NULL,"2024-05-07 11:47:53","2024-05-07 11:47:53",8098098090,"This is the best place to hang out",Playgrounds
83,"IRC Village (S - 1) Primary School",,2,,0.9,20.2893,85.8084,"Jayadev Vihar",1,NA,06:30AM,06:30PM,1,1,1,1,1,1,1,NA,0,"2024-05-07 12:00:23",0,"2024-05-07 12:00:23",NULL,NULL,"2024-05-07 11:47:53","2024-05-07 11:47:53",8098098090,"This is the best place to hang out",Playgrounds
84,"Jaydev College Field",,2,,3.682,20.3285,85.8709,Johal,1,NA,06:30AM,06:30PM,1,1,1,1,1,1,1,NA,0,"2024-05-07 12:00:23",0,"2024-05-07 12:00:23",NULL,NULL,"2024-05-07 11:47:53","2024-05-07 11:47:53",8098098090,"This is the best place to hang out",Playgrounds
85,"Vivekananda Siksha Kendra, Unit - 4",,2,,0.101,20.2848,85.8316,"Madhusudan Nagar",1,NA,06:30AM,06:30PM,1,1,1,1,1,1,1,NA,0,"2024-05-07 12:00:23",0,"2024-05-07 12:00:23",NULL,NULL,"2024-05-07 11:47:53","2024-05-07 11:47:53",8098098090,"This is the best place to hang out",Playgrounds
86,"Nargoda Patia",,2,,1.91,20.2447,85.7464,Baramunda,1,NA,06:30AM,06:30PM,1,1,1,1,1,1,1,NA,0,"2024-05-07 12:00:23",0,"2024-05-07 12:00:23",NULL,NULL,"2024-05-07 11:47:53","2024-05-07 11:47:53",8098098090,"This is the best place to hang out",Playgrounds
87,"O.S.E.B. Colony Upper Primary School",,2,,0.082,20.2941,85.837,"Bhoi Nagar",1,NA,06:30AM,06:30PM,1,1,1,1,1,1,1,NA,0,"2024-05-07 12:00:23",0,"2024-05-07 12:00:23",NULL,NULL,"2024-05-07 11:47:53","2024-05-07 11:47:53",8098098090,"This is the best place to hang out",Playgrounds
88,"Jai Prakash Narayan Park","CDP- Landuse",1,"CDP- Landuse",0.873,20.2684,85.8418,,1,NA,06:30AM,06:30PM,1,1,1,1,1,1,1,NA,0,"2024-05-07 12:00:23",0,"2024-05-07 12:00:23",NULL,NULL,"2024-05-07 11:47:53","2024-05-07 11:47:53",8098098090,"This is the best place to hang out",Parks
89,"Nayagram Primary School",,2,,0.041,20.2143,85.8385,Kapileswar,1,NA,06:30AM,06:30PM,1,1,1,1,1,1,1,NA,0,"2024-05-07 12:00:23",0,"2024-05-07 12:00:23",NULL,NULL,"2024-05-07 11:47:53","2024-05-07 11:47:53",8098098090,"This is the best place to hang out",Playgrounds
90,"State Capital Nursery","CDP- Landuse",1,"CDP- Landuse",5.592,20.2667,85.835,,1,NA,06:30AM,06:30PM,1,1,1,1,1,1,1,NA,0,"2024-05-07 12:00:23",0,"2024-05-07 12:00:23",NULL,NULL,"2024-05-07 11:47:53","2024-05-07 11:47:53",8098098090,"This is the best place to hang out",Parks
91,"Dr. Shyama Prasad Mukherjee Park",BDA,1,BDA,4.417,20.2964,85.8488,,1,NA,06:30AM,06:30PM,1,1,1,1,1,1,1,NA,0,"2024-05-07 12:00:23",0,"2024-05-07 12:00:23",NULL,NULL,"2024-05-07 11:47:53","2024-05-07 11:47:53",8098098090,"This is the best place to hang out",Parks
92,"Krushi Vihar Park",BMC,1,BMC,0.668,20.272,85.8098,,1,NA,06:30AM,06:30PM,1,1,1,1,1,1,1,NA,0,"2024-05-07 12:00:23",0,"2024-05-07 12:00:23",NULL,NULL,"2024-05-07 11:47:53","2024-05-07 11:47:53",8098098090,"This is the best place to hang out",Parks
93,"Saraswati Siksha Kendra, BDA Colony",,2,,0.27,20.3182,85.8157,Damana,1,NA,06:30AM,06:30PM,1,1,1,1,1,1,1,NA,0,"2024-05-07 12:00:23",0,"2024-05-07 12:00:23",NULL,NULL,"2024-05-07 11:47:53","2024-05-07 11:47:53",8098098090,"This is the best place to hang out",Playgrounds
94,"Pragati Sporting",,2,,0.695,20.2665,85.8252,"Madhusudan Nagar",1,NA,06:30AM,06:30PM,1,1,1,1,1,1,1,NA,0,"2024-05-07 12:00:23",0,"2024-05-07 12:00:23",NULL,NULL,"2024-05-07 11:47:53","2024-05-07 11:47:53",8098098090,"This is the best place to hang out",Playgrounds
95,"Smrutivan Botanical Garden","CDP - Landuse",1,"CDP - Landuse",250.948,20.2479,85.7608,,1,NA,06:30AM,06:30PM,1,1,1,1,1,1,1,NA,0,"2024-05-07 12:00:23",0,"2024-05-07 12:00:23",NULL,NULL,"2024-05-07 11:47:53","2024-05-07 11:47:53",8098098090,"This is the best place to hang out",Parks
96,"Kanan Vihar Phase - 1 Park","BMC - List provided by GA",1,"BMC - List provided by GA",2.715,20.3415,85.8242,,1,NA,06:30AM,06:30PM,1,1,1,1,1,1,1,NA,0,"2024-05-07 12:00:23",0,"2024-05-07 12:00:23",NULL,NULL,"2024-05-07 11:47:53","2024-05-07 11:47:53",8098098090,"This is the best place to hang out",Parks
97,"Netaji English Medium School, Laxmisagar",,2,,0.225,20.2648,85.8577,Laxmisagar,1,NA,06:30AM,06:30PM,1,1,1,1,1,1,1,NA,0,"2024-05-07 12:00:23",0,"2024-05-07 12:00:23",NULL,NULL,"2024-05-07 11:47:53","2024-05-07 11:47:53",8098098090,"This is the best place to hang out",Playgrounds
98,"Odisha Football Academy",,2,,17.442,20.3113,85.8219,Samantapuri,1,NA,06:30AM,06:30PM,1,1,1,1,1,1,1,NA,0,"2024-05-07 12:00:23",0,"2024-05-07 12:00:23",NULL,NULL,"2024-05-07 11:47:53","2024-05-07 11:47:53",8098098090,"This is the best place to hang out",Playgrounds
99,"SOS Children's Village, Kalinga Studio",,2,,1.178,20.2866,85.7762,Baramunda,1,NA,06:30AM,06:30PM,1,1,1,1,1,1,1,NA,0,"2024-05-07 12:00:23",0,"2024-05-07 12:00:23",NULL,NULL,"2024-05-07 11:47:53","2024-05-07 11:47:53",8098098090,"This is the best place to hang out",Playgrounds
100,"VSK, BDA Colony, Chandrasekharpur",,2,,0.18,20.3186,85.8162,Damana,1,NA,06:30AM,06:30PM,1,1,1,1,1,1,1,NA,0,"2024-05-07 12:00:23",0,"2024-05-07 12:00:23",NULL,NULL,"2024-05-07 11:47:53","2024-05-07 11:47:53",8098098090,"This is the best place to hang out",Playgrounds
101,"O.D.M Public School",,2,,0.449,20.3455,85.8181,Patia,1,NA,06:30AM,06:30PM,1,1,1,1,1,1,1,NA,0,"2024-05-07 12:00:23",0,"2024-05-07 12:00:23",NULL,NULL,"2024-05-07 11:47:53","2024-05-07 11:47:53",8098098090,"This is the best place to hang out",Playgrounds
102,"Ekamra Kanan Botanical Garden","Forest Department",1,"Forest Department",191.988,20.3005,85.8019,,1,NA,06:30AM,06:30PM,1,1,1,1,1,1,1,NA,0,"2024-05-07 12:00:23",0,"2024-05-07 12:00:23",NULL,NULL,"2024-05-07 11:47:53","2024-05-07 11:47:53",8098098090,"This is the best place to hang out",Parks
103,"RBI Staff Quarter Park"," ",1," ",1.998,20.2778,85.7933,,1,NA,06:30AM,06:30PM,1,1,1,1,1,1,1,NA,0,"2024-05-07 12:00:23",0,"2024-05-07 12:00:23",NULL,NULL,"2024-05-07 11:47:53","2024-05-07 11:47:53",8098098090,"This is the best place to hang out",Parks
104,"Prachi Enclave Phase - II Park, Chandrasekharpur","BMC - List provided by GA",1,"BMC - List provided by GA",0.505,20.3238,85.8162,,1,NA,06:30AM,06:30PM,1,1,1,1,1,1,1,NA,0,"2024-05-07 12:00:23",0,"2024-05-07 12:00:23",NULL,NULL,"2024-05-07 11:47:53","2024-05-07 11:47:53",8098098090,"This is the best place to hang out",Parks
105,"BRIT Colony Park - 3, Nayapalli",BMC,1,BDA,0.164,20.2826,85.8133,,1,NA,06:30AM,06:30PM,1,1,1,1,1,1,1,NA,0,"2024-05-07 12:00:23",0,"2024-05-07 12:00:23",NULL,NULL,"2024-05-07 11:47:53","2024-05-07 11:47:53",8098098090,"This is the best place to hang out",Parks
106,"Gyana Pattanaik Park",BMC,1,BMC,0.151,20.2646,85.8224,,1,NA,06:30AM,06:30PM,1,1,1,1,1,1,1,NA,0,"2024-05-07 12:00:23",0,"2024-05-07 12:00:23",NULL,NULL,"2024-05-07 11:47:53","2024-05-07 11:47:53",8098098090,"This is the best place to hang out",Parks
107,"Saraswati Sishu Mandir, Dharma Vihar",,2,,0.877,20.2636,85.7937,Jagamara,1,NA,06:30AM,06:30PM,1,1,1,1,1,1,1,NA,0,"2024-05-07 12:00:23",0,"2024-05-07 12:00:23",NULL,NULL,"2024-05-07 11:47:53","2024-05-07 11:47:53",8098098090,"This is the best place to hang out",Playgrounds
108,"Mahatma Gandhi Park",BDA,1,BDA,5.753,20.3061,85.8224,,1,NA,06:30AM,06:30PM,1,1,1,1,1,1,1,NA,0,"2024-05-07 12:00:23",0,"2024-05-07 12:00:23",NULL,NULL,"2024-05-07 11:47:53","2024-05-07 11:47:53",8098098090,"This is the best place to hang out",Parks
109,"Acharya Harihar Park, Acharya Vihar","BMC - List provided by GA",1,"BMC - List provided by GA",0.407,20.2955,85.8295,,1,NA,06:30AM,06:30PM,1,1,1,1,1,1,1,NA,0,"2024-05-07 12:00:23",0,"2024-05-07 12:00:23",NULL,NULL,"2024-05-07 11:47:53","2024-05-07 11:47:53",8098098090,"This is the best place to hang out",Parks
110,"GA Colony Park",BMC,1,BMC,2.493,20.3126,85.7801,,1,NA,06:30AM,06:30PM,1,1,1,1,1,1,1,NA,0,"2024-05-07 12:00:23",0,"2024-05-07 12:00:23",NULL,NULL,"2024-05-07 11:47:53","2024-05-07 11:47:53",8098098090,"This is the best place to hang out",Parks
111,"OUAT Ground, Siripur",,2,,4.912,20.2647,85.8125,"Paika Nagar",1,NA,06:30AM,06:30PM,1,1,1,1,1,1,1,NA,0,"2024-05-07 12:00:23",0,"2024-05-07 12:00:23",NULL,NULL,"2024-05-07 11:47:53","2024-05-07 11:47:53",8098098090,"This is the best place to hang out",Playgrounds
112,"Palaspalli BDA Park I",BDA,1,BDA,1.1,20.2463,85.8252,,1,NA,06:30AM,06:30PM,1,1,1,1,1,1,1,NA,0,"2024-05-07 12:00:23",0,"2024-05-07 12:00:23",NULL,NULL,"2024-05-07 11:47:53","2024-05-07 11:47:53",8098098090,"This is the best place to hang out",Parks
113,"HIG Phase 7 Bayojyestha Park"," ",1," ",1.006,20.3374,85.8127,,1,NA,06:30AM,06:30PM,1,1,1,1,1,1,1,NA,0,"2024-05-07 12:00:23",0,"2024-05-07 12:00:23",NULL,NULL,"2024-05-07 11:47:53","2024-05-07 11:47:53",8098098090,"This is the best place to hang out",Parks
114,"RBI Colony Primary School",,2,,0.024,20.2779,85.8269,"Madhusudan Nagar",1,NA,06:30AM,06:30PM,1,1,1,1,1,1,1,NA,0,"2024-05-07 12:00:23",0,"2024-05-07 12:00:23",NULL,NULL,"2024-05-07 11:47:53","2024-05-07 11:47:53",8098098090,"This is the best place to hang out",Playgrounds
115,"Baramunda Cenus Colony Park - South",BMC,1,BMC,0.501,20.278,85.7941,,1,NA,06:30AM,06:30PM,1,1,1,1,1,1,1,NA,0,"2024-05-07 12:00:23",0,"2024-05-07 12:00:23",NULL,NULL,"2024-05-07 11:47:53","2024-05-07 11:47:53",8098098090,"This is the best place to hang out",Parks
116,"Rangamatia Children Park","BMC - List provided by GA",1,"BMC - List provided by GA",1.123,20.3271,85.8399,,1,NA,06:30AM,06:30PM,1,1,1,1,1,1,1,NA,0,"2024-05-07 12:00:23",0,"2024-05-07 12:00:23",NULL,NULL,"2024-05-07 11:47:53","2024-05-07 11:47:53",8098098090,"This is the best place to hang out",Parks
117,"Sri Aurobinda +2 Science College Ground",,2,,3.863,20.2663,85.7908,Aiginia,1,NA,06:30AM,06:30PM,1,1,1,1,1,1,1,NA,0,"2024-05-07 12:00:23",0,"2024-05-07 12:00:23",NULL,NULL,"2024-05-07 11:47:53","2024-05-07 11:47:53",8098098090,"This is the best place to hang out",Playgrounds
118,"Subhadra Mahtab Girls High School",,2,,0.15,20.2375,85.8324,"Old Bhubaneswar",1,NA,06:30AM,06:30PM,1,1,1,1,1,1,1,NA,0,"2024-05-07 12:00:23",0,"2024-05-07 12:00:23",NULL,NULL,"2024-05-07 11:47:53","2024-05-07 11:47:53",8098098090,"This is the best place to hang out",Playgrounds
119,Shikharchandi,"Forest Department",1,"Forest Department",101.775,20.3551,85.8043,,1,NA,06:30AM,06:30PM,1,1,1,1,1,1,1,NA,0,"2024-05-07 12:00:23",0,"2024-05-07 12:00:23",NULL,NULL,"2024-05-07 11:47:53","2024-05-07 11:47:53",8098098090,"This is the best place to hang out",Parks
120,"Panda Park"," ",1," ",0.15,20.3266,85.8003,,1,NA,06:30AM,06:30PM,1,1,1,1,1,1,1,NA,0,"2024-05-07 12:00:23",0,"2024-05-07 12:00:23",NULL,NULL,"2024-05-07 11:47:53","2024-05-07 11:47:53",8098098090,"This is the best place to hang out",Parks
121,"Saraswati Sishu Vidya Mandir",,2,,1.713,20.2945,85.873,Govindprasad,1,NA,06:30AM,06:30PM,1,1,1,1,1,1,1,NA,0,"2024-05-07 12:00:23",0,"2024-05-07 12:00:23",NULL,NULL,"2024-05-07 11:47:53","2024-05-07 11:47:53",8098098090,"This is the best place to hang out",Playgrounds
122,"Tapoban High School Field (I)",,2,,3.197,20.2676,85.7872,Aiginia,1,NA,06:30AM,06:30PM,1,1,1,1,1,1,1,NA,0,"2024-05-07 12:00:23",0,"2024-05-07 12:00:23",NULL,NULL,"2024-05-07 11:47:53","2024-05-07 11:47:53",8098098090,"This is the best place to hang out",Playgrounds
123,"Chandrasekharpur EWS Park","BMC - List provided by GA",1,"BMC - List provided by GA",0.244,20.3194,85.8158,,1,NA,06:30AM,06:30PM,1,1,1,1,1,1,1,NA,0,"2024-05-07 12:00:23",0,"2024-05-07 12:00:23",NULL,NULL,"2024-05-07 11:47:53","2024-05-07 11:47:53",8098098090,"This is the best place to hang out",Parks
124,"Disabled Friendly Park",BDA,1,"Smart City",0.431,20.2874,85.8531,,1,NA,06:30AM,06:30PM,1,1,1,1,1,1,1,NA,0,"2024-05-07 12:00:23",0,"2024-05-07 12:00:23",NULL,NULL,"2024-05-07 11:47:53","2024-05-07 11:47:53",8098098090,"This is the best place to hang out",Parks
125,"Khandagiri Field KC Ground",,2,,5.001,20.2577,85.792,Jagamara,1,NA,06:30AM,06:30PM,1,1,1,1,1,1,1,NA,0,"2024-05-07 12:00:23",0,"2024-05-07 12:00:23",NULL,NULL,"2024-05-07 11:47:53","2024-05-07 11:47:53",8098098090,"This is the best place to hang out",Playgrounds
126,"Palasuni High School, Rasulgarh",,2,,0.144,20.2944,85.8578,"Gada Gopinath Prasad",1,NA,06:30AM,06:30PM,1,1,1,1,1,1,1,NA,0,"2024-05-07 12:00:23",0,"2024-05-07 12:00:23",NULL,NULL,"2024-05-07 11:47:53","2024-05-07 11:47:53",8098098090,"This is the best place to hang out",Playgrounds
127,"Saheed Nagar Park"," ",1," ",0.42,20.2945,85.8466,,1,NA,06:30AM,06:30PM,1,1,1,1,1,1,1,NA,0,"2024-05-07 12:00:23",0,"2024-05-07 12:00:23",NULL,NULL,"2024-05-07 11:47:53","2024-05-07 11:47:53",8098098090,"This is the best place to hang out",Parks
128,"Saraswati Sishu Vidya Mandir, Bharatpur",,2,,0.056,20.2967,85.7798,Baramunda,1,NA,06:30AM,06:30PM,1,1,1,1,1,1,1,NA,0,"2024-05-07 12:00:23",0,"2024-05-07 12:00:23",NULL,NULL,"2024-05-07 11:47:53","2024-05-07 11:47:53",8098098090,"This is the best place to hang out",Playgrounds
129,"Palaspalli BDA Park II",BDA,1,BDA,0.767,20.2456,85.8265,,1,NA,06:30AM,06:30PM,1,1,1,1,1,1,1,NA,0,"2024-05-07 12:00:23",0,"2024-05-07 12:00:23",NULL,NULL,"2024-05-07 11:47:53","2024-05-07 11:47:53",8098098090,"This is the best place to hang out",Parks
130,"BDA Kalinga Nagar Park, K-5, Plot No - 498","BMC - List provided by GA",1,"BMC - List provided by GA",0.508,20.2501,85.7558,,1,NA,06:30AM,06:30PM,1,1,1,1,1,1,1,NA,0,"2024-05-07 12:00:23",0,"2024-05-07 12:00:23",NULL,NULL,"2024-05-07 11:47:53","2024-05-07 11:47:53",8098098090,"This is the best place to hang out",Parks
131,"Santosh Vihar Park - Laxmisagar","BMC - List provided by GA",1,"BMC - List provided by GA",0.716,20.2654,85.8616,,1,NA,06:30AM,06:30PM,1,1,1,1,1,1,1,NA,0,"2024-05-07 12:00:23",0,"2024-05-07 12:00:23",NULL,NULL,"2024-05-07 11:47:53","2024-05-07 11:47:53",8098098090,"This is the best place to hang out",Parks
132,"Reserve Police Ground",,2,,4.042,20.2929,85.8276,"Madhusudan Nagar",1,NA,06:30AM,06:30PM,1,1,1,1,1,1,1,NA,0,"2024-05-07 12:00:23",0,"2024-05-07 12:00:23",NULL,NULL,"2024-05-07 11:47:53","2024-05-07 11:47:53",8098098090,"This is the best place to hang out",Playgrounds
133,Ekamravana,"Forest Department",1,"Forest Department",1.748,20.2434,85.8345,,1,NA,06:30AM,06:30PM,1,1,1,1,1,1,1,NA,0,"2024-05-07 12:00:23",0,"2024-05-07 12:00:23",NULL,NULL,"2024-05-07 11:47:53","2024-05-07 11:47:53",8098098090,"This is the best place to hang out",Parks
134," BDA Park Brit Colony"," ",1," ",0.274,20.2503,85.8519,,1,NA,06:30AM,06:30PM,1,1,1,1,1,1,1,NA,0,"2024-05-07 12:00:23",0,"2024-05-07 12:00:23",NULL,NULL,"2024-05-07 11:47:53","2024-05-07 11:47:53",8098098090,"This is the best place to hang out",Parks
135,"Stage V Colony Park, Jharpada",BMC,1,BMC,0.181,20.2773,85.8582,,1,NA,06:30AM,06:30PM,1,1,1,1,1,1,1,NA,0,"2024-05-07 12:00:23",0,"2024-05-07 12:00:23",NULL,NULL,"2024-05-07 11:47:53","2024-05-07 11:47:53",8098098090,"This is the best place to hang out",Parks
136,"Khuntia Field",,2,,0.142,20.2323,85.8305,"Old Bhubaneswar",1,NA,06:30AM,06:30PM,1,1,1,1,1,1,1,NA,0,"2024-05-07 12:00:23",0,"2024-05-07 12:00:23",NULL,NULL,"2024-05-07 11:47:53","2024-05-07 11:47:53",8098098090,"This is the best place to hang out",Playgrounds
137,"Brahmeswar Patana Park",BMC,1,AMRUT,0.595,20.2407,85.8514,,1,NA,06:30AM,06:30PM,1,1,1,1,1,1,1,NA,0,"2024-05-07 12:00:23",0,"2024-05-07 12:00:23",NULL,NULL,"2024-05-07 11:47:53","2024-05-07 11:47:53",8098098090,"This is the best place to hang out",Parks
138,"Mulapadia Local Park",BMC,1,AMRUT,3.808,20.2389,85.8295,,1,NA,06:30AM,06:30PM,1,1,1,1,1,1,1,NA,0,"2024-05-07 12:00:23",0,"2024-05-07 12:00:23",NULL,NULL,"2024-05-07 11:47:53","2024-05-07 11:47:53",8098098090,"This is the best place to hang out",Parks
139,"Police Colony BMC Children's Park, Nayapalli","BMC - List provided by GA",1,"BMC - List provided by GA",0.397,20.2908,85.8125,,1,NA,06:30AM,06:30PM,1,1,1,1,1,1,1,NA,0,"2024-05-07 12:00:23",0,"2024-05-07 12:00:23",NULL,NULL,"2024-05-07 11:47:53","2024-05-07 11:47:53",8098098090,"This is the best place to hang out",Parks
140,"Kotla Playground",,2,,0.877,20.2741,85.7698,Baramunda,1,NA,06:30AM,06:30PM,1,1,1,1,1,1,1,NA,0,"2024-05-07 12:00:23",0,"2024-05-07 12:00:23",NULL,NULL,"2024-05-07 11:47:53","2024-05-07 11:47:53",8098098090,"This is the best place to hang out",Playgrounds
141,"Tapoban High School, Khandagiri",,2,,0.533,20.2684,85.7876,Aiginia,1,NA,06:30AM,06:30PM,1,1,1,1,1,1,1,NA,0,"2024-05-07 12:00:23",0,"2024-05-07 12:00:23",NULL,NULL,"2024-05-07 11:47:53","2024-05-07 11:47:53",8098098090,"This is the best place to hang out",Playgrounds
142," Children's Park"," ",1," ",1.346,20.2433,85.7535,,1,NA,06:30AM,06:30PM,1,1,1,1,1,1,1,NA,0,"2024-05-07 12:00:23",0,"2024-05-07 12:00:23",NULL,NULL,"2024-05-07 11:47:53","2024-05-07 11:47:53",8098098090,"This is the best place to hang out",Parks
143,"Sri Aurobindo Integral Education, Jharpada",,2,,0.22,20.2752,85.8595,Jharpada,1,NA,06:30AM,06:30PM,1,1,1,1,1,1,1,NA,0,"2024-05-07 12:00:23",0,"2024-05-07 12:00:23",NULL,NULL,"2024-05-07 11:47:53","2024-05-07 11:47:53",8098098090,"This is the best place to hang out",Playgrounds
144,"Housing Board Colony Park - Lewis Road","BMC - List provided by GA",1,"BMC - List provided by GA",0.244,20.2483,85.8398,,1,NA,06:30AM,06:30PM,1,1,1,1,1,1,1,NA,0,"2024-05-07 12:00:23",0,"2024-05-07 12:00:23",NULL,NULL,"2024-05-07 11:47:53","2024-05-07 11:47:53",8098098090,"This is the best place to hang out",Parks
145,"Indira Gandhi Park",BDA,1,"10 Park Improvement",14.516,20.2698,85.8328,,1,NA,06:30AM,06:30PM,1,1,1,1,1,1,1,NA,0,"2024-05-07 12:00:23",0,"2024-05-07 12:00:23",NULL,NULL,"2024-05-07 11:47:53","2024-05-07 11:47:53",8098098090,"This is the best place to hang out",Parks
146," Niladri Vihar Sector 2 Park"," ",1," ",0.99,20.3284,85.8106,,1,NA,06:30AM,06:30PM,1,1,1,1,1,1,1,NA,0,"2024-05-07 12:00:23",0,"2024-05-07 12:00:23",NULL,NULL,"2024-05-07 11:47:53","2024-05-07 11:47:53",8098098090,"This is the best place to hang out",Parks
147,"SSVM Playground Ghatikia",,2,,0.525,20.2734,85.7695,Baramunda,1,NA,06:30AM,06:30PM,1,1,1,1,1,1,1,NA,0,"2024-05-07 12:00:23",0,"2024-05-07 12:00:23",NULL,NULL,"2024-05-07 11:47:53","2024-05-07 11:47:53",8098098090,"This is the best place to hang out",Playgrounds
148,"GGP Colony Park",BMC,1,AMRUT,0.38,20.2942,85.8666,,1,NA,06:30AM,06:30PM,1,1,1,1,1,1,1,NA,0,"2024-05-07 12:00:23",0,"2024-05-07 12:00:23",NULL,NULL,"2024-05-07 11:47:53","2024-05-07 11:47:53",8098098090,"This is the best place to hang out",Parks
149,"Badagada Village Park",BMC,1,BMC,0.187,20.2512,85.8536,,1,NA,06:30AM,06:30PM,1,1,1,1,1,1,1,NA,0,"2024-05-07 12:00:23",0,"2024-05-07 12:00:23",NULL,NULL,"2024-05-07 11:47:53","2024-05-07 11:47:53",8098098090,"This is the best place to hang out",Parks
150," Neeladri Central Park"," ",1," ",0.759,20.329,85.8065,,1,NA,06:30AM,06:30PM,1,1,1,1,1,1,1,NA,0,"2024-05-07 12:00:23",0,"2024-05-07 12:00:23",NULL,NULL,"2024-05-07 11:47:53","2024-05-07 11:47:53",8098098090,"This is the best place to hang out",Parks
151,"Paribesh Unayan Parisad Park",BMC,1,BMC,0.496,20.2792,85.7963,,1,NA,06:30AM,06:30PM,1,1,1,1,1,1,1,NA,0,"2024-05-07 12:00:23",0,"2024-05-07 12:00:23",NULL,NULL,"2024-05-07 11:47:53","2024-05-07 11:47:53",8098098090,"This is the best place to hang out",Parks
152,"Badagada BRIT Colony Park",BDA,1,BDA,0.753,20.2486,85.8526,,1,NA,06:30AM,06:30PM,1,1,1,1,1,1,1,NA,0,"2024-05-07 12:00:23",0,"2024-05-07 12:00:23",NULL,NULL,"2024-05-07 11:47:53","2024-05-07 11:47:53",8098098090,"This is the best place to hang out",Parks
153,"BRIT Colony Park - 1, Nayapalli",BMC,1,BDA,0.285,20.282,85.8127,,1,NA,06:30AM,06:30PM,1,1,1,1,1,1,1,NA,0,"2024-05-07 12:00:23",0,"2024-05-07 12:00:23",NULL,NULL,"2024-05-07 11:47:53","2024-05-07 11:47:53",8098098090,"This is the best place to hang out",Parks
154,"BMC Park",BMC,1,BMC,0.251,20.2948,85.8161,,1,NA,06:30AM,06:30PM,1,1,1,1,1,1,1,NA,0,"2024-05-07 12:00:23",0,"2024-05-07 12:00:23",NULL,NULL,"2024-05-07 11:47:53","2024-05-07 11:47:53",8098098090,"This is the best place to hang out",Parks
155,"BRIT Colony Park - 2, Nayapalli",BDA,1,BDA,0.094,20.2829,85.8123,,1,NA,06:30AM,06:30PM,1,1,1,1,1,1,1,NA,0,"2024-05-07 12:00:23",0,"2024-05-07 12:00:23",NULL,NULL,"2024-05-07 11:47:53","2024-05-07 11:47:53",8098098090,"This is the best place to hang out",Parks
156,"BMC Children Park",BMC,1,BMC,1.239,20.3076,85.8589,,1,NA,06:30AM,06:30PM,1,1,1,1,1,1,1,NA,0,"2024-05-07 12:00:23",0,"2024-05-07 12:00:23",NULL,NULL,"2024-05-07 11:47:53","2024-05-07 11:47:53",8098098090,"This is the best place to hang out",Parks
157,"BRIT Colony HIG Park - Shailashree Vihar",BMC,1,BMC,1.242,20.3372,85.811,,1,NA,06:30AM,06:30PM,1,1,1,1,1,1,1,NA,0,"2024-05-07 12:00:23",0,"2024-05-07 12:00:23",NULL,NULL,"2024-05-07 11:47:53","2024-05-07 11:47:53",8098098090,"This is the best place to hang out",Parks
158,"Unit - 8, BDA Park",BDA,1,BDA,4.325,20.2775,85.8106,,1,NA,06:30AM,06:30PM,1,1,1,1,1,1,1,NA,0,"2024-05-07 12:00:23",0,"2024-05-07 12:00:23",NULL,NULL,"2024-05-07 11:47:53","2024-05-07 11:47:53",8098098090,"This is the best place to hang out",Parks
159,"Bayojyestha Park - BMC Children Park",BMC,1,AMRUT,0.549,20.3312,85.8069,,1,NA,06:30AM,06:30PM,1,1,1,1,1,1,1,NA,0,"2024-05-07 12:00:23",0,"2024-05-07 12:00:23",NULL,NULL,"2024-05-07 11:47:53","2024-05-07 11:47:53",8098098090,"This is the best place to hang out",Parks
160,"Niladri Vihar Colony Park, Sector - V","BMC - List provided by GA",1,"BMC - List provided by GA",1.449,20.327,85.8016,,1,NA,06:30AM,06:30PM,1,1,1,1,1,1,1,NA,0,"2024-05-07 12:00:23",0,"2024-05-07 12:00:23",NULL,NULL,"2024-05-07 11:47:53","2024-05-07 11:47:53",8098098090,"This is the best place to hang out",Parks
161,"Shailashree Vihar Phase VI Park",BDA,1,AMRUT,0.403,20.331,85.8083,,1,NA,06:30AM,06:30PM,1,1,1,1,1,1,1,NA,0,"2024-05-07 12:00:23",0,"2024-05-07 12:00:23",NULL,NULL,"2024-05-07 11:47:53","2024-05-07 11:47:53",8098098090,"This is the best place to hang out",Parks
162,"Unit - 2 Boys High School, Ashok Nagar",,2,,0.096,20.27,85.8341,"Kharavela Nagar",1,NA,06:30AM,06:30PM,1,1,1,1,1,1,1,NA,0,"2024-05-07 12:00:23",0,"2024-05-07 12:00:23",NULL,NULL,"2024-05-07 11:47:53","2024-05-07 11:47:53",8098098090,"This is the best place to hang out",Playgrounds
163,"Devi Padahara Kund Park",BDA,1,BDA,1.628,20.2386,85.8354,,1,NA,06:30AM,06:30PM,1,1,1,1,1,1,1,NA,0,"2024-05-07 12:00:23",0,"2024-05-07 12:00:23",NULL,NULL,"2024-05-07 11:47:53","2024-05-07 11:47:53",8098098090,"This is the best place to hang out",Parks
164,"E Type Colony Park, Baramunda",BMC,1,AMRUT,0.276,20.2819,85.7957,,1,NA,06:30AM,06:30PM,1,1,1,1,1,1,1,NA,0,"2024-05-07 12:00:23",0,"2024-05-07 12:00:23",NULL,NULL,"2024-05-07 11:47:53","2024-05-07 11:47:53",8098098090,"This is the best place to hang out",Parks
165," LIG Kalinga Vihar Park"," ",1," ",0.293,20.2546,85.7545,,1,NA,06:30AM,06:30PM,1,1,1,1,1,1,1,NA,0,"2024-05-07 12:00:23",0,"2024-05-07 12:00:23",NULL,NULL,"2024-05-07 11:47:53","2024-05-07 11:47:53",8098098090,"This is the best place to hang out",Parks
166,"Unit - 2 Primary School",,2,,0.254,20.2659,85.8362,"Kharavela Nagar",1,NA,06:30AM,06:30PM,1,1,1,1,1,1,1,NA,0,"2024-05-07 12:00:23",0,"2024-05-07 12:00:23",NULL,NULL,"2024-05-07 11:47:53","2024-05-07 11:47:53",8098098090,"This is the best place to hang out",Playgrounds
167,Silviculture,"Forest Department",1,"Forest Department",99.607,20.2783,85.7808,,1,NA,06:30AM,06:30PM,1,1,1,1,1,1,1,NA,0,"2024-05-07 12:00:23",0,"2024-05-07 12:00:23",NULL,NULL,"2024-05-07 11:47:53","2024-05-07 11:47:53",8098098090,"This is the best place to hang out",Parks
168," KKY BDA Park"," ",1," ",0.61,20.2489,85.7544,,1,NA,06:30AM,06:30PM,1,1,1,1,1,1,1,NA,0,"2024-05-07 12:00:23",0,"2024-05-07 12:00:23",NULL,NULL,"2024-05-07 11:47:53","2024-05-07 11:47:53",8098098090,"This is the best place to hang out",Parks
169," BDA Kalinga Vihar K5 Park"," ",1," ",0.592,20.2492,85.756,,1,NA,06:30AM,06:30PM,1,1,1,1,1,1,1,NA,0,"2024-05-07 12:00:23",0,"2024-05-07 12:00:23",NULL,NULL,"2024-05-07 11:47:53","2024-05-07 11:47:53",8098098090,"This is the best place to hang out",Parks
170,"N3 BDA Park",BDA,1,BDA,0.915,20.2968,85.8073,,1,NA,06:30AM,06:30PM,1,1,1,1,1,1,1,NA,0,"2024-05-07 12:00:23",0,"2024-05-07 12:00:23",NULL,NULL,"2024-05-07 11:47:53","2024-05-07 11:47:53",8098098090,"This is the best place to hang out",Parks
171,"Unit - 4 Upper Primary School",,2,,0.272,20.2778,85.8335,"Madhusudan Nagar",1,NA,06:30AM,06:30PM,1,1,1,1,1,1,1,NA,0,"2024-05-07 12:00:23",0,"2024-05-07 12:00:23",NULL,NULL,"2024-05-07 11:47:53","2024-05-07 11:47:53",8098098090,"This is the best place to hang out",Playgrounds
172," BDA Children Park"," ",1," ",0.163,20.3179,85.8171,,1,NA,06:30AM,06:30PM,1,1,1,1,1,1,1,NA,0,"2024-05-07 12:00:23",0,"2024-05-07 12:00:23",NULL,NULL,"2024-05-07 11:47:53","2024-05-07 11:47:53",8098098090,"This is the best place to hang out",Parks
173,"Anand Van","Forest Department",1,"Forest Department",104.699,20.2643,85.7586,,1,NA,06:30AM,06:30PM,1,1,1,1,1,1,1,NA,0,"2024-05-07 12:00:23",0,"2024-05-07 12:00:23",NULL,NULL,"2024-05-07 11:47:53","2024-05-07 11:47:53",8098098090,"This is the best place to hang out",Parks
174,"BDA PARK",BDA,1,BDA,0.466,20.2977,85.8052,,1,NA,06:30AM,06:30PM,1,1,1,1,1,1,1,NA,0,"2024-05-07 12:00:23",0,"2024-05-07 12:00:23",NULL,NULL,"2024-05-07 11:47:53","2024-05-07 11:47:53",8098098090,"This is the best place to hang out",Parks
175,"ICAR- Central Institute For Women In Agriculture & Agroforestry Research Farm, OUAT","Forest Department",1,"Forest Department",292.188,20.2819,85.786,,1,NA,06:30AM,06:30PM,1,1,1,1,1,1,1,NA,0,"2024-05-07 12:00:23",0,"2024-05-07 12:00:23",NULL,NULL,"2024-05-07 11:47:53","2024-05-07 11:47:53",8098098090,"This is the best place to hang out",Parks
176," Ananta Vihar Phase 3 DDC Park"," ",1," ",0.891,20.2422,85.8062,,1,NA,06:30AM,06:30PM,1,1,1,1,1,1,1,NA,0,"2024-05-07 12:00:23",0,"2024-05-07 12:00:23",NULL,NULL,"2024-05-07 11:47:53","2024-05-07 11:47:53",8098098090,"This is the best place to hang out",Parks
177,"Unit - 6 Government High School",,2,,0.082,20.2634,85.8206,"Surya Nagar",1,NA,06:30AM,06:30PM,1,1,1,1,1,1,1,NA,0,"2024-05-07 12:00:23",0,"2024-05-07 12:00:23",NULL,NULL,"2024-05-07 11:47:53","2024-05-07 11:47:53",8098098090,"This is the best place to hang out",Playgrounds
178,"Dumduma Government High School",,2,,4.386,20.2451,85.7931,,1,NA,06:30AM,06:30PM,1,1,1,1,1,1,1,NA,0,"2024-05-07 12:00:23",0,"2024-05-07 12:00:23",NULL,NULL,"2024-05-07 11:47:53","2024-05-07 11:47:53",8098098090,"This is the best place to hang out",Playgrounds
179,"Unit - 8 Girls High School",,2,,0.156,20.2775,85.8122,"Gopabandhu Nagar",1,NA,06:30AM,06:30PM,1,1,1,1,1,1,1,NA,0,"2024-05-07 12:00:23",0,"2024-05-07 12:00:23",NULL,NULL,"2024-05-07 11:47:53","2024-05-07 11:47:53",8098098090,"This is the best place to hang out",Playgrounds
180,"Aiginia Masani Field",,2,,1.505,20.2485,85.7863,Aiginia,1,NA,06:30AM,06:30PM,1,1,1,1,1,1,1,NA,0,"2024-05-07 12:00:23",0,"2024-05-07 12:00:23",NULL,NULL,"2024-05-07 11:47:53","2024-05-07 11:47:53",8098098090,"This is the best place to hang out",Playgrounds
181,"Indradhanu Market Park",BDA,1,BDA,0.913,20.2943,85.8155,,1,NA,06:30AM,06:30PM,1,1,1,1,1,1,1,NA,0,"2024-05-07 12:00:23",0,"2024-05-07 12:00:23",NULL,NULL,"2024-05-07 11:47:53","2024-05-07 11:47:53",8098098090,"This is the best place to hang out",Parks
182,"Ajit Memorial Field (BDA Youth and Sports Club)",,2,,0.419,20.3193,85.8175,Damana,1,NA,06:30AM,06:30PM,1,1,1,1,1,1,1,NA,0,"2024-05-07 12:00:23",0,"2024-05-07 12:00:23",NULL,NULL,"2024-05-07 11:47:53","2024-05-07 11:47:53",8098098090,"This is the best place to hang out",Playgrounds
183,"Venkateswar English Medium School, Bhimatangi",,2,,0.03,20.2357,85.8272,Kapilaprasad,1,NA,06:30AM,06:30PM,1,1,1,1,1,1,1,NA,0,"2024-05-07 12:00:23",0,"2024-05-07 12:00:23",NULL,NULL,"2024-05-07 11:47:53","2024-05-07 11:47:53",8098098090,"This is the best place to hang out",Playgrounds
184,"Dr. APJ Abdul Kalam Park",BDA,1,BDA,11.202,20.278,85.7652,,1,NA,06:30AM,06:30PM,1,1,1,1,1,1,1,NA,0,"2024-05-07 12:00:23",0,"2024-05-07 12:00:23",NULL,NULL,"2024-05-07 11:47:53","2024-05-07 11:47:53",8098098090,"This is the best place to hang out",Parks
185,"Postal Colony Park Unit - 4",BMC,1,BMC,0.731,20.3002,85.8497,,1,NA,06:30AM,06:30PM,1,1,1,1,1,1,1,NA,0,"2024-05-07 12:00:23",0,"2024-05-07 12:00:23",NULL,NULL,"2024-05-07 11:47:53","2024-05-07 11:47:53",8098098090,"This is the best place to hang out",Parks
186,"Kapilaprasad Park",BDA,1,BDA,0.396,20.2345,85.8173,,1,NA,06:30AM,06:30PM,1,1,1,1,1,1,1,NA,0,"2024-05-07 12:00:23",0,"2024-05-07 12:00:23",NULL,NULL,"2024-05-07 11:47:53","2024-05-07 11:47:53",8098098090,"This is the best place to hang out",Parks
187,"Netaji Subash Chandra Bose Park",BDA,1,BDA,18.661,20.2545,85.8071,,1,NA,06:30AM,06:30PM,1,1,1,1,1,1,1,NA,0,"2024-05-07 12:00:23",0,"2024-05-07 12:00:23",NULL,NULL,"2024-05-07 11:47:53","2024-05-07 11:47:53",8098098090,"This is the best place to hang out",Parks
188,"Madhusudan Das Park",BDA,1,BDA,33.451,20.2448,85.8109,,1,NA,06:30AM,06:30PM,1,1,1,1,1,1,1,NA,0,"2024-05-07 12:00:23",0,"2024-05-07 12:00:23",NULL,NULL,"2024-05-07 11:47:53","2024-05-07 11:47:53",8098098090,"This is the best place to hang out",Parks
189,"Bhakta Madhu Nagar Park",BMC,1,BMC,0.124,20.2506,85.8047,,1,NA,06:30AM,06:30PM,1,1,1,1,1,1,1,NA,0,"2024-05-07 12:00:23",0,"2024-05-07 12:00:23",NULL,NULL,"2024-05-07 11:47:53","2024-05-07 11:47:53",8098098090,"This is the best place to hang out",Parks
190,"BDA Colony Park",BDA,1,BDA,0.136,20.2339,85.8181,,1,NA,06:30AM,06:30PM,1,1,1,1,1,1,1,NA,0,"2024-05-07 12:00:23",0,"2024-05-07 12:00:23",NULL,NULL,"2024-05-07 11:47:53","2024-05-07 11:47:53",8098098090,"This is the best place to hang out",Parks
191,"Bhimeswar Temple Park",BMC,1,BMC,0.538,20.2371,85.8209,,1,NA,06:30AM,06:30PM,1,1,1,1,1,1,1,NA,0,"2024-05-07 12:00:23",0,"2024-05-07 12:00:23",NULL,NULL,"2024-05-07 11:47:53","2024-05-07 11:47:53",8098098090,"This is the best place to hang out",Parks
192,"Bhimatangi Phase I Park",BMC,1,BMC,0.293,20.2397,85.825,,1,NA,06:30AM,06:30PM,1,1,1,1,1,1,1,NA,0,"2024-05-07 12:00:23",0,"2024-05-07 12:00:23",NULL,NULL,"2024-05-07 11:47:53","2024-05-07 11:47:53",8098098090,"This is the best place to hang out",Parks
193,"Bhuasuni Park",BMC,1,BMC,0.518,20.229,85.8419,,1,NA,06:30AM,06:30PM,1,1,1,1,1,1,1,NA,0,"2024-05-07 12:00:23",0,"2024-05-07 12:00:23",NULL,NULL,"2024-05-07 11:47:53","2024-05-07 11:47:53",8098098090,"This is the best place to hang out",Parks
194,"Ambedkar Siksha Kendra, Jadupur",,2,,0.327,20.2358,85.7955,Dumduma,1,NA,06:30AM,06:30PM,1,1,1,1,1,1,1,NA,0,"2024-05-07 12:00:23",0,"2024-05-07 12:00:23",NULL,NULL,"2024-05-07 11:47:53","2024-05-07 11:47:53",8098098090,"This is the best place to hang out",Playgrounds
195,"Jayadev Vatika",BMC,1,BMC,164.523,20.2611,85.7819,,1,NA,06:30AM,06:30PM,1,1,1,1,1,1,1,NA,0,"2024-05-07 12:00:23",0,"2024-05-07 12:00:23",NULL,NULL,"2024-05-07 11:47:53","2024-05-07 11:47:53",8098098090,"This is the best place to hang out",Parks
196,"Ashwash School of Integral Education, Old town",,2,,0.203,20.2285,85.8228,Sundarpada,1,NA,06:30AM,06:30PM,1,1,1,1,1,1,1,NA,0,"2024-05-07 12:00:23",0,"2024-05-07 12:00:23",NULL,NULL,"2024-05-07 11:47:53","2024-05-07 11:47:53",8098098090,"This is the best place to hang out",Playgrounds
197,"Aurobinda Integral School, Saheed Nagar",,2,,0.203,20.2864,85.8533,"Satya Nagar",1,NA,06:30AM,06:30PM,1,1,1,1,1,1,1,NA,0,"2024-05-07 12:00:23",0,"2024-05-07 12:00:23",NULL,NULL,"2024-05-07 11:47:53","2024-05-07 11:47:53",8098098090,"This is the best place to hang out",Playgrounds
198,"Bajrangi Playground, Ghatikia",,2,,3.008,20.2731,85.7719,Baramunda,1,NA,06:30AM,06:30PM,1,1,1,1,1,1,1,NA,0,"2024-05-07 12:00:23",0,"2024-05-07 12:00:23",NULL,NULL,"2024-05-07 11:47:53","2024-05-07 11:47:53",8098098090,"This is the best place to hang out",Playgrounds
199,"Stewart School Ground",BMC,1,BMC,5.254,20.2813,85.8079,,1,NA,06:30AM,06:30PM,1,1,1,1,1,1,1,NA,0,"2024-05-07 12:00:23",0,"2024-05-07 12:00:23",NULL,NULL,"2024-05-07 11:47:53","2024-05-07 11:47:53",8098098090,"This is the best place to hang out",Parks
200,"BMC Park",BMC,1,BMC,0.386,20.2892,85.8358,,1,NA,06:30AM,06:30PM,1,1,1,1,1,1,1,NA,0,"2024-05-07 12:00:23",0,"2024-05-07 12:00:23",NULL,NULL,"2024-05-07 11:47:53","2024-05-07 11:47:53",8098098090,"This is the best place to hang out",Parks
201,"Tinikania Park",BMC,1,BMC,0.803,20.284,85.7943,,1,NA,06:30AM,06:30PM,1,1,1,1,1,1,1,NA,0,"2024-05-07 12:00:23",0,"2024-05-07 12:00:23",NULL,NULL,"2024-05-07 11:47:53","2024-05-07 11:47:53",8098098090,"This is the best place to hang out",Parks
202,"Basudev Playground",,2,,0.74,20.2882,85.8482,"Saheed Nagar",1,NA,06:30AM,06:30PM,1,1,1,1,1,1,1,NA,0,"2024-05-07 12:00:23",0,"2024-05-07 12:00:23",NULL,NULL,"2024-05-07 11:47:53","2024-05-07 11:47:53",8098098090,"This is the best place to hang out",Playgrounds
203,"Ghatikia Community Park",BMC,1,BMC,0.773,20.2755,85.7716,,1,NA,06:30AM,06:30PM,1,1,1,1,1,1,1,NA,0,"2024-05-07 12:00:23",0,"2024-05-07 12:00:23",NULL,NULL,"2024-05-07 11:47:53","2024-05-07 11:47:53",8098098090,"This is the best place to hang out",Parks
204,"Bhaktakabi Madhusudan High School",,2,,0.089,20.2377,85.833,"Old Bhubaneswar",1,NA,06:30AM,06:30PM,1,1,1,1,1,1,1,NA,0,"2024-05-07 12:00:23",0,"2024-05-07 12:00:23",NULL,NULL,"2024-05-07 11:47:53","2024-05-07 11:47:53",8098098090,"This is the best place to hang out",Playgrounds
205,"BDA Childrens Park, K-8 Kalinga Nagar",BDA,1,BDA,1.468,20.2778,85.7665,,1,NA,06:30AM,06:30PM,1,1,1,1,1,1,1,NA,0,"2024-05-07 12:00:23",0,"2024-05-07 12:00:23",NULL,NULL,"2024-05-07 11:47:53","2024-05-07 11:47:53",8098098090,"This is the best place to hang out",Parks
206,"Bhaktakabi Madhusudan High School Ground",,2,,3.159,20.2366,85.8319,"Old Bhubaneswar",1,NA,06:30AM,06:30PM,1,1,1,1,1,1,1,NA,0,"2024-05-07 12:00:23",0,"2024-05-07 12:00:23",NULL,NULL,"2024-05-07 11:47:53","2024-05-07 11:47:53",8098098090,"This is the best place to hang out",Playgrounds
207,"Bhaktakabi Madhusudan Upper Primary School, Dumduma",,2,,0.487,20.2413,85.786,Aiginia,1,NA,06:30AM,06:30PM,1,1,1,1,1,1,1,NA,0,"2024-05-07 12:00:23",0,"2024-05-07 12:00:23",NULL,NULL,"2024-05-07 11:47:53","2024-05-07 11:47:53",8098098090,"This is the best place to hang out",Playgrounds
208,"BDA Kalinga Vihar Park, K-6",BMC,1,BMC,0.629,20.2458,85.7534,,1,NA,06:30AM,06:30PM,1,1,1,1,1,1,1,NA,0,"2024-05-07 12:00:23",0,"2024-05-07 12:00:23",NULL,NULL,"2024-05-07 11:47:53","2024-05-07 11:47:53",8098098090,"This is the best place to hang out",Parks
209,"Bharatiya Vidya Mandir, Jharapada",,2,,0.21,20.2726,85.8608,Jharpada,1,NA,06:30AM,06:30PM,1,1,1,1,1,1,1,NA,0,"2024-05-07 12:00:23",0,"2024-05-07 12:00:23",NULL,NULL,"2024-05-07 11:47:53","2024-05-07 11:47:53",8098098090,"This is the best place to hang out",Playgrounds
210,"Rental Colony Old Park",BMC,1,BMC,1.035,20.2913,85.7998,,1,NA,06:30AM,06:30PM,1,1,1,1,1,1,1,NA,0,"2024-05-07 12:00:23",0,"2024-05-07 12:00:23",NULL,NULL,"2024-05-07 11:47:53","2024-05-07 11:47:53",8098098090,"This is the best place to hang out",Parks
